{
    "links": {
        "self": "http://www.neowsapp.com/rest/v1/neo/3757201?api_key=iIulBulltgU6a56xZRHN4H3l9WmuAYTsLGpBGhQ2"
    },
    "id": "3757201",
    "neo_reference_id": "3757201",
    "name": "(2016 PT26)",
    "designation": "2016 PT26",
    "nasa_jpl_url": "http://ssd.jpl.nasa.gov/sbdb.cgi?sstr=3757201",
    "absolute_magnitude_h": 23.2,
    "estimated_diameter": {
        "kilometers": {
            "estimated_diameter_min": 0.0608912622,
            "estimated_diameter_max": 0.1361570015
        },
        "meters": {
            "estimated_diameter_min": 60.8912622106,
            "estimated_diameter_max": 136.1570015386
        },
        "miles": {
            "estimated_diameter_min": 0.0378360645,
            "estimated_diameter_max": 0.0846040122
        },
        "feet": {
            "estimated_diameter_min": 199.7744887109,
            "estimated_diameter_max": 446.7093369279
        }
    },
    "is_potentially_hazardous_asteroid": false,
    "close_approach_data": [
        {
            "close_approach_date": "2007-07-25",
            "close_approach_date_full": "2007-Jul-25 03:13",
            "epoch_date_close_approach": 1185333180000,
            "relative_velocity": {
                "kilometers_per_second": "16.9643689858",
                "kilometers_per_hour": "61071.7283487443",
                "miles_per_hour": "37947.5969842517"
            },
            "miss_distance": {
                "astronomical": "0.2584923567",
                "lunar": "100.5535267563",
                "kilometers": "38669905.973600229",
                "miles": "24028365.3618880002"
            },
            "orbiting_body": "Earth"
        },
        {
            "close_approach_date": "2014-08-20",
            "close_approach_date_full": "2014-Aug-20 15:13",
            "epoch_date_close_approach": 1408547580000,
            "relative_velocity": {
                "kilometers_per_second": "6.8885657799",
                "kilometers_per_hour": "24798.8368078057",
                "miles_per_hour": "15409.0327931613"
            },
            "miss_distance": {
                "astronomical": "1.4344543916",
                "lunar": "558.0027583324",
                "kilometers": "214591321.595505892",
                "miles": "133340864.1414176296"
            },
            "orbiting_body": "Juptr"
        },
        {
            "close_approach_date": "2016-08-01",
            "close_approach_date_full": "2016-Aug-01 18:55",
            "epoch_date_close_approach": 1470077700000,
            "relative_velocity": {
                "kilometers_per_second": "18.19239204",
                "kilometers_per_hour": "65492.6113439086",
                "miles_per_hour": "40694.5617542192"
            },
            "miss_distance": {
                "astronomical": "0.1736660963",
                "lunar": "67.5561114607",
                "kilometers": "25980078.097694881",
                "miles": "16143271.9564401178"
            },
            "orbiting_body": "Earth"
        },
        {
            "close_approach_date": "2025-08-13",
            "close_approach_date_full": "2025-Aug-13 15:52",
            "epoch_date_close_approach": 1755100320000,
            "relative_velocity": {
                "kilometers_per_second": "22.5221181962",
                "kilometers_per_hour": "81079.6255063787",
                "miles_per_hour": "50379.7261931162"
            },
            "miss_distance": {
                "astronomical": "0.3868845263",
                "lunar": "150.4980807307",
                "kilometers": "57877101.070438981",
                "miles": "35963162.9711446978"
            },
            "orbiting_body": "Earth"
        }
    ],
    "orbital_data": {
        "orbit_id": "5",
        "orbit_determination_date": "2017-04-06 08:24:37",
        "first_observation_date": "2016-08-08",
        "last_observation_date": "2016-09-07",
        "data_arc_in_days": 30,
        "observations_used": 28,
        "orbit_uncertainty": "6",
        "minimum_orbit_intersection": ".169456",
        "jupiter_tisserand_invariant": "2.918",
        "epoch_osculation": "2459000.5",
        "eccentricity": ".5847067874806943",
        "semi_major_axis": "2.735339974629709",
        "inclination": "30.30122268858838",
        "ascending_node_longitude": "313.9332084740865",
        "orbital_period": "1652.400795615006",
        "perihelion_distance": "1.135968125396448",
        "perihelion_argument": "329.8335529634909",
        "aphelion_distance": "4.334711823862969",
        "perihelion_time": "2459232.200328500445",
        "mean_anomaly": "309.5206499043622",
        "mean_motion": ".2178648188474224",
        "equinox": "J2000",
        "orbit_class": {
            "orbit_class_type": "AMO",
            "orbit_class_description": "Near-Earth asteroid orbits similar to that of 1221 Amor",
            "orbit_class_range": "1.017 AU < q (perihelion) < 1.3 AU"
        }
    },
    "is_sentry_object": false
}